[{"OBJECT_NAME":"STARLINK-31272","OBJECT_ID":"2024-044L","EPOCH":"2026-03-09T11:04:40.105056","MEAN_MOTION":15.27575096,"ECCENTRICITY":0.00010403,"INCLINATION":42.9999,"RA_OF_ASC_NODE":108.0604,"ARG_OF_PERICENTER":254.0222,"MEAN_ANOMALY":106.0515,"EPHEMERIS_TYPE":0,"CLASSIFICATION_TYPE":"U","NORAD_CAT_ID":59162,"ELEMENT_SET_NO":999,"REV_AT_EPOCH":11353,"BSTAR":2.058611e-6,"MEAN_MOTION_DOT":-2.05e-6,"MEAN_MOTION_DDOT":0},{"OBJECT_NAME":"OBJECT A","OBJECT_ID":"2024-203A","EPOCH":"2026-03-09T23:31:20.812800","MEAN_MOTION":15.27300571,"ECCENTRICITY":0.00108989,"INCLINATION":97.4288,"RA_OF_ASC_NODE":139.5608,"ARG_OF_PERICENTER":322.6893,"MEAN_ANOMALY":37.3588,"EPHEMERIS_TYPE":0,"CLASSIFICATION_TYPE":"U","NORAD_CAT_ID":61869,"ELEMENT_SET_NO":999,"REV_AT_EPOCH":7380,"BSTAR":0.00061472876,"MEAN_MOTION_DOT":0.00016411,"MEAN_MOTION_DDOT":0}]
